NORAD_CAT_ID,OBJECT_NAME,OBJECT_TYPE,EPOCH,MEAN_MOTION,ECCENTRICITY,INCLINATION,RA_OF_ASC_NODE,ARG_OF_PERICENTER,MEAN_ANOMALY,BSTAR,MEAN_MOTION_DOT,MEAN_MOTION_DDOT,TLE_LINE0,TLE_LINE1,TLE_LINE2,SEMIMAJOR_AXIS,PERIOD,APOGEE,PERIGEE,DECAYED
53910.0,STARLINK-5056,PAYLOAD,2023-05-27 20:04:08,15.0883717,9.84e-05,53.2142,199.0158,82.7846,277.3258,-2.8145e-06,-3.33e-06,0.0,0 STARLINK-5056,1 53910U 22119AA  23147.83621372 -.00000333  00000-0 -28145-5 0  9998,2 53910  53.2142 199.0158 0000984  82.7846 277.3258 15.08837170 38315,6917.889,95.438,540.435,539.073,0.0
53910.0,STARLINK-5056,PAYLOAD,2023-05-28 04:01:04,15.08837054,9.92e-05,53.2143,197.5292,83.8498,276.2607,4.8114e-06,-2.11e-06,0.0,0 STARLINK-5056,1 53910U 22119AA  23148.16741458 -.00000211  00000-0  48114-5 0  9995,2 53910  53.2143 197.5292 0000992  83.8498 276.2607 15.08837054 38364,6917.889,95.438,540.441,539.068,0.0
53910.0,STARLINK-5056,PAYLOAD,2023-05-28 10:22:37,15.08837359,0.0001036,53.2151,196.3412,88.9991,271.112,1.5718e-05,-3.8e-07,0.0,0 STARLINK-5056,1 53910U 22119AA  23148.43237461 -.00000038  00000-0  15718-4 0  9999,2 53910  53.2151 196.3412 0001036  88.9991 271.1120 15.08837359 37987,6917.888,95.438,540.47,539.037,0.0
53910.0,STARLINK-5056,PAYLOAD,2023-05-28 19:54:55,15.08839031,0.0001002,53.2146,194.5559,84.2038,275.9069,3.4474e-05,2.61e-06,0.0,0 STARLINK-5056,1 53910U 22119AA  23148.82981327  .00000261  00000-0  34474-4 0  9996,2 53910  53.2146 194.5559 0001002  84.2038 275.9069 15.08839031 38464,6917.883,95.438,540.442,539.055,0.0
53910.0,STARLINK-5056,PAYLOAD,2023-05-29 11:48:47,15.08841394,0.0001037,53.2151,191.5835,89.2178,270.8933,6.2612e-05,7.09e-06,0.0,0 STARLINK-5056,1 53910U 22119AA  23149.49221164  .00000709  00000-0  62612-4 0  9998,2 53910  53.2151 191.5835 0001037  89.2178 270.8933 15.08841394 38562,6917.876,95.437,540.459,539.024,0.0
53910.0,STARLINK-5056,PAYLOAD,2023-05-29 19:45:43,15.08834132,0.0001091,53.2153,190.0977,94.7231,265.3885,2.0872e-05,4.4e-07,0.0,0 STARLINK-5056,1 53910U 22119AA  23149.82341801  .00000044  00000-0  20872-4 0  9990,2 53910  53.2153 190.0977 0001091  94.7231 265.3885 15.08834132 38619,6917.898,95.438,540.518,539.009,0.0
53910.0,STARLINK-5056,PAYLOAD,2023-05-30 02:07:16,15.08829098,0.0001148,53.2156,188.9063,94.5259,265.5864,8.1293e-05,1.006e-05,0.0,0 STARLINK-5056,1 53910U 22119AA  23150.08837989  .00001006  00000-0  81293-4 0  9990,2 53910  53.2156 188.9063 0001148  94.5259 265.5864 15.08829098 38237,6917.914,95.438,540.573,538.985,0.0
53910.0,STARLINK-5056,PAYLOAD,2023-05-30 08:28:48,15.08834854,0.0001127,53.2157,187.7164,92.8215,267.2906,-1.1676e-05,-4.74e-06,0.0,0 STARLINK-5056,1 53910U 22119AA  23150.35334020 -.00000474  00000-0 -11676-4 0  9996,2 53910  53.2157 187.7164 0001127  92.8215 267.2906 15.08834854 38699,6917.896,95.438,540.541,538.981,0.0
53910.0,STARLINK-5056,PAYLOAD,2023-05-30 19:36:30,15.08835036,0.0001161,53.2157,185.6345,89.5071,270.6054,3.5303e-07,-2.82e-06,0.0,0 STARLINK-5056,1 53910U 22119AA  23150.81702104 -.00000282  00000-0  35303-6 0  9990,2 53910  53.2157 185.6345 0001161  89.5071 270.6054 15.08835036 38761,6917.896,95.438,540.564,538.957,0.0
53910.0,STARLINK-5056,PAYLOAD,2023-05-31 09:54:58,15.08837136,9.54e-05,53.2149,182.9583,115.6436,244.4655,-1.8846e-05,-5.88e-06,0.0,0 STARLINK-5056,1 53910U 22119AA  23151.41317946 -.00000588  00000-0 -18846-4 0  9994,2 53910  53.2149 182.9583 0000954 115.6436 244.4655 15.08837136 38434,6917.889,95.438,540.414,539.094,0.0
53910.0,STARLINK-5056,PAYLOAD,2023-05-31 19:27:17,15.08840703,0.0001072,53.2155,181.1744,84.475,275.6364,4.6573e-05,4.54e-06,0.0,0 STARLINK-5056,1 53910U 22119AA  23151.81061686  .00000454  00000-0  46573-4 0  9993,2 53910  53.2155 181.1744 0001072  84.4750 275.6364 15.08840703 38915,6917.878,95.438,540.485,539.002,0.0
53910.0,STARLINK-5056,PAYLOAD,2023-06-01 08:10:22,15.08842403,8.99e-05,53.2154,178.7952,88.0946,272.0149,9.4094e-05,1.21e-05,0.0,0 STARLINK-5056,1 53910U 22119AA  23152.34053332  .00001210  00000-0  94094-4 0  9993,2 53910  53.2154 178.7952 0000899  88.0946 272.0149 15.08842403 38999,6917.873,95.437,540.36,539.116,0.0
53910.0,STARLINK-5056,PAYLOAD,2023-06-01 19:18:04,15.08840095,9.82e-05,53.2142,176.7128,90.0904,270.0201,5.9481e-05,6.59e-06,0.0,0 STARLINK-5056,1 53910U 22119AA  23152.80421519  .00000659  00000-0  59481-4 0  9997,2 53910  53.2142 176.7128 0000982  90.0904 270.0201 15.08840095 38643,6917.88,95.438,540.424,539.066,0.0
53910.0,STARLINK-5056,PAYLOAD,2023-06-02 08:01:09,15.08837757,0.0001065,53.2152,174.3343,89.4106,270.7008,1.0545e-05,-1.2e-06,0.0,0 STARLINK-5056,1 53910U 22119AA  23153.33413871 -.00000120  00000-0  10545-4 0  9990,2 53910  53.2152 174.3343 0001065  89.4106 270.7008 15.08837757 39145,6917.887,95.438,540.489,539.015,0.0
53910.0,STARLINK-5056,PAYLOAD,2023-06-03 01:30:24,15.08837328,0.0001041,53.2143,171.0628,93.2095,266.9016,-5.8891e-05,-1.225e-05,0.0,0 STARLINK-5056,1 53910U 22119AA  23154.06278202 -.00001225  00000-0 -58891-4 0  9992,2 53910  53.2143 171.0628 0001041  93.2095 266.9016 15.08837328 38834,6917.889,95.438,540.474,539.033,0.0
53910.0,STARLINK-5056,PAYLOAD,2023-06-03 07:51:57,15.08835157,0.0001051,53.2146,169.8729,99.6789,260.4321,-5.4207e-05,-1.15e-05,0.0,0 STARLINK-5056,1 53910U 22119AA  23154.32774324 -.00001150  00000-0 -54207-4 0  9991,2 53910  53.2146 169.8729 0001051  99.6789 260.4321 15.08835157 39292,6917.895,95.438,540.487,539.033,0.0
53910.0,STARLINK-5056,PAYLOAD,2023-06-04 07:42:44,15.08834823,9.87e-05,53.2147,165.4132,79.3724,280.738,2.6442e-05,1.33e-06,0.0,0 STARLINK-5056,1 53910U 22119AA  23155.32134399  .00000133  00000-0  26442-4 0  9992,2 53910  53.2147 165.4132 0000987  79.3724 280.7380 15.08834823 39024,6917.896,95.438,540.444,539.078,0.0
53910.0,STARLINK-5056,PAYLOAD,2023-06-05 05:58:07,15.08837176,9.89e-05,53.2148,161.2498,79.302,280.8084,8.3529e-05,1.042e-05,0.0,0 STARLINK-5056,1 53910U 22119AA  23156.24870254  .00001042  00000-0  83529-4 0  9990,2 53910  53.2148 161.2498 0000989  79.3020 280.8084 15.08837176 39582,6917.889,95.438,540.438,539.07,0.0
53910.0,STARLINK-5056,PAYLOAD,2023-06-05 17:05:49,15.08837476,9.99e-05,53.2148,159.1682,78.0292,282.0812,6.0927e-05,6.82e-06,0.0,0 STARLINK-5056,1 53910U 22119AA  23156.71238388  .00000682  00000-0  60927-4 0  9994,2 53910  53.2148 159.1682 0000999  78.0292 282.0812 15.08837476 39655,6917.888,95.438,540.444,539.062,0.0
53910.0,STARLINK-5056,PAYLOAD,2023-06-05 23:27:22,15.08835551,9.99e-05,53.2146,157.9794,79.8846,280.2258,1.864e-05,9e-08,0.0,0 STARLINK-5056,1 53910U 22119AA  23156.97734702  .00000009  00000-0  18640-4 0  9991,2 53910  53.2146 157.9794 0000999  79.8846 280.2258 15.08835551 39271,6917.894,95.438,540.45,539.068,0.0
53910.0,STARLINK-5056,PAYLOAD,2023-06-06 10:35:04,15.0883778,0.0001006,53.2148,155.8982,80.3956,279.7149,3.2548e-05,2.3e-06,0.0,0 STARLINK-5056,1 53910U 22119AA  23157.44102592  .00000230  00000-0  32548-4 0  9999,2 53910  53.2148 155.8982 0001006  80.3956 279.7149 15.08837780 39760,6917.887,95.438,540.448,539.056,0.0
53910.0,STARLINK-5056,PAYLOAD,2023-06-06 18:32:00,15.08838676,0.0001004,53.2151,154.4113,81.6854,278.4252,1.6013e-05,-3.3e-07,0.0,0 STARLINK-5056,1 53910U 22119AA  23157.77222610 -.00000033  00000-0  16013-4 0  9990,2 53910  53.2151 154.4113 0001004  81.6854 278.4252 15.08838676 39816,6917.884,95.438,540.444,539.055,0.0
53910.0,STARLINK-5056,PAYLOAD,2023-06-07 08:50:28,15.08841965,0.0001016,53.2151,151.7348,82.0339,278.0768,2.1185e-05,4.9e-07,0.0,0 STARLINK-5056,1 53910U 22119AA  23158.36838374  .00000049  00000-0  21185-4 0  9998,2 53910  53.2151 151.7348 0001016  82.0339 278.0768 15.08841965 39488,6917.874,95.437,540.442,539.037,0.0
53910.0,STARLINK-5056,PAYLOAD,2023-06-07 16:47:24,15.08839713,0.0001026,53.2151,150.2479,81.8131,278.2978,1.8315e-05,4e-08,0.0,0 STARLINK-5056,1 53910U 22119AA  23158.69958498  .00000004  00000-0  18315-4 0  9996,2 53910  53.2151 150.2479 0001026  81.8131 278.2978 15.08839713 39950,6917.881,95.438,540.456,539.036,0.0
53910.0,STARLINK-5056,PAYLOAD,2023-06-08 08:41:15,15.08841443,0.0001031,53.2151,147.2738,82.8992,277.2118,5.4947e-05,5.87e-06,0.0,0 STARLINK-5056,1 53910U 22119AA  23159.36198267  .00000587  00000-0  54947-4 0  9998,2 53910  53.2151 147.2738 0001031  82.8992 277.2118 15.08841443 40057,6917.876,95.437,540.454,539.028,0.0
53910.0,STARLINK-5056,PAYLOAD,2023-06-09 05:21:16,15.08841479,0.0001043,53.215,143.4075,83.9124,276.1987,4.3509e-05,4.05e-06,0.0,0 STARLINK-5056,1 53910U 22119AA  23160.22310194  .00000405  00000-0  43509-4 0  9991,2 53910  53.2150 143.4075 0001043  83.9124 276.1987 15.08841479 39767,6917.876,95.437,540.462,539.019,0.0
53910.0,STARLINK-5056,PAYLOAD,2023-06-09 16:28:57,15.08841058,0.0001018,53.2152,141.3252,86.5345,273.5764,3.0676e-05,2e-06,0.0,0 STARLINK-5056,1 53910U 22119AA  23160.68678175  .00000200  00000-0  30676-4 0  9991,2 53910  53.2152 141.3252 0001018  86.5345 273.5764 15.08841058 40252,6917.877,95.437,540.446,539.038,0.0
53910.0,STARLINK-5056,PAYLOAD,2023-06-09 22:50:31,15.08834701,0.0001108,53.2152,140.1374,84.2942,275.8176,-3.2127e-05,-7.99e-06,0.0,0 STARLINK-5056,1 53910U 22119AA  23160.95174866 -.00000799  00000-0 -32127-4 0  9997,2 53910  53.2152 140.1374 0001108  84.2942 275.8176 15.08834701 39877,6917.897,95.438,540.528,538.995,0.0
53910.0,STARLINK-5056,PAYLOAD,2023-06-10 08:22:49,15.08838435,0.000121,53.2157,138.3528,91.5058,268.6073,7.7466e-06,-1.65e-06,0.0,0 STARLINK-5056,1 53910U 22119AA  23161.34918540 -.00000165  00000-0  77466-5 0  9998,2 53910  53.2157 138.3528 0001210  91.5058 268.6073 15.08838435 40354,6917.885,95.438,540.587,538.913,0.0
53910.0,STARLINK-5056,PAYLOAD,2023-06-11 08:13:36,15.08836601,0.000119,53.215,133.8929,87.7767,272.3361,7.3974e-06,-1.7e-06,0.0,0 STARLINK-5056,1 53910U 22119AA  23162.34278870 -.00000170  00000-0  73974-5 0  9990,2 53910  53.2150 133.8929 0001190  87.7767 272.3361 15.08836601 40505,6917.891,95.438,540.579,538.933,0.0
